"spkid","full_name","pdes","name","prefix","neo","pha","sats","H","G","M1","M2","K1","K2","PC","diameter","extent","albedo","rot_per","GM","BV","UB","IR","spec_B","spec_T","H_sigma","diameter_sigma","orbit_id","epoch","epoch_mjd","epoch_cal","equinox","e","a","q","i","om","w","ma","ad","n","tp","tp_cal","per","per_y","moid","moid_ld","moid_jup","t_jup","sigma_e","sigma_a","sigma_q","sigma_i","sigma_om","sigma_w","sigma_ma","sigma_ad","sigma_n","sigma_tp","sigma_per","class","producer","data_arc","first_obs","last_obs","n_obs_used","n_del_obs_used","n_dop_obs_used","condition_code","rms","two_body","A1","A1_sigma","A2","A2_sigma","A3","A3_sigma","DT","DT_sigma"
1000105,"   36P/Whipple",36P,Whipple,P,,,0,,,10.5,14.4,13.25,5.,0.03,4.56,,,,,,,,,,,,"JPL 23",2454696.5,54696,2008-08-18.0,J2000,0.2582,4.165,3.089,9.94,182.39,201.95,217.19,5.24,0.116,2455927.96,2012-01-01.4,3.1e+03,8.5,2.1,815,0.26,2.95,8.3e-08,4.0e-08,3.4e-07,1.0e-05,5.0e-05,5.7e-05,1.9e-05,5.0e-08,1.7e-09,1.5e-04,4.4e-05,JFc,"Davide Farnocchia",26894,1948-07-18,2022-03-06,937,,,0,.63989,,5.3e-09,9.6e-10,-5.4e-10,3.3e-11,,,,
1000028,"   37P/Forbes",37P,Forbes,P,,,0,,,11.5,15.4,16.25,5.,0.03,1.92,,,,,,,,,,,,"JPL K182/10",2457840.5,57840,2017-03-28.0,J2000,0.5345,3.456,1.609,8.96,314.64,330.00,298.31,5.30,0.1534,2458242.65,2018-05-04.1,2.35e+03,6.42,0.599,233,0.226,2.87,2.6e-07,4.8e-07,9.4e-07,1.2e-05,5.4e-05,1.0e-04,3.1e-05,7.4e-07,3.2e-08,1.3e-04,4.9e-04,JFc,"Shantanu Naidu",2866,2011-02-08,2018-12-14,1199,,,1,.57623,,7.7e-09,2.3e-10,2.0e-10,9.3e-11,,,,
1000101,"   40P/Vaisala 1",40P,Vaisala,P,,,0,,,11.7,14.8,13.,5.,0.03,4.2,,,,,,,,,,,,"JPL K148/7",2457262.5,57262,2015-08-28.0,J2000,0.6316,4.94,1.820,11.49,133.84,47.29,25.60,8.06,0.08977,2456977.34,2014-11-15.8,4.01e+03,11,0.848,330,0.0865,2.53,8.4e-08,5.2e-08,4.1e-07,5.6e-06,5.2e-05,5.4e-05,5.6e-06,8.4e-08,1.4e-09,5.9e-05,6.3e-05,JFc,"Ryan S. Park",27930,1939-01-18,2015-07-08,1128,,,0,.84439,,,,-1.1e-10,2.5e-13,,,,
1000100,"   41P/Tuttle-Giacobini-Kresak",41P,Tuttle-Giacobini-Kresak,P,Y,,0,,,15.3,,17.,,,1.4,,,,,,,,,,,,"JPL K171/18",2457844.5,57844,2017-04-01.0,J2000,0.6613,3.085,1.045,9.23,141.07,62.16,357.86,5.12,0.1819,2457856.25,2017-04-12.7,1.98e+03,5.42,0.134,52,0.488,2.83,3.7e-07,3.4e-06,3.3e-08,2.7e-06,1.4e-05,1.9e-05,3.3e-06,5.6e-06,3.0e-07,7.9e-06,3.3e-03,JFc,"Davide Farnocchia",262,2016-11-10,2017-07-30,4259,2,7,2,.41437,,1.7e-08,2.2e-10,4.3e-09,2.2e-10,1.5e-09,1.2e-10,11.4,0.594
1000065,"   42P/Neujmin 3",42P,Neujmin,P,,,0,,,13.2,16.4,15.,5.,0.03,2.2,,,,,,,,,,,,"JPL K155/2",2457380.5,57380,2015-12-24.0,J2000,0.5842,4.876,2.028,3.98,150.28,147.12,23.78,7.73,0.09153,2457120.71,2015-04-08.2,3.93e+03,10.8,1.01,395,0.025,2.63,6.6e-07,5.4e-07,3.3e-06,2.1e-05,1.6e-04,2.8e-04,6.7e-05,8.5e-07,1.5e-08,7.2e-04,6.5e-04,JFc,"Ryan S. Park",15880,1972-04-17,2015-10-09,297,,,0,.73554,,1.3e-08,4.1e-10,-1.0e-09,1.7e-10,,,77.1,7.75
1000111,"   43P/Wolf-Harrington",43P,Wolf-Harrington,P,,,0,,,8.6,13.9,17.,5.,0.03,3.6,,,,,,,,,,,,"JPL K162/8",2456756.5,56756,2014-04-09.0,J2000,0.5949,3.35,1.357,15.97,249.87,191.56,221.22,5.34,0.1607,2457619.92,2016-08-19.4,2.24e+03,6.13,0.376,146,0.0733,2.79,2.1e-07,2.2e-07,7.4e-07,7.4e-06,5.7e-05,7.1e-05,2.0e-05,3.5e-07,1.6e-08,6.6e-05,2.2e-04,JFc,"Shantanu Naidu",2939,2009-05-24,2017-06-10,1635,,,0,.66646,,3.6e-09,9.7e-11,2.4e-10,4.0e-11,,,,
1000071,"   44P/Reinmuth 2",44P,Reinmuth,P,,,0,,,14.4,,4.5,,,3.22,,,,,,,,,,,,"JPL K223/39",2458083.5,58083,2017-11-26.0,J2000,0.4262,3.691,2.118,5.90,286.46,58.19,135.98,5.26,0.139,2457105.20,2015-03-23.7,2.59e+03,7.09,1.12,435,0.52,2.93,7.4e-08,5.3e-08,2.8e-07,1.2e-05,1.3e-04,1.4e-04,2.7e-05,7.6e-08,3.0e-09,2.0e-04,5.6e-05,JFc,"Davide Farnocchia",5727,2007-06-18,2023-02-21,1746,,,0,.63019,,,,-6.3e-10,4.2e-12,,,,
1000045,"   45P/Honda-Mrkos-Pajdusakova",45P,Honda-Mrkos-Pajdusakova,P,Y,,0,,,13.7,18.0,22.,5.,0.03,1.6,,,,,,,,,,,,"JPL K222/7",2457979.5,57979,2017-08-14.0,J2000,0.8240,3.026,0.533,4.25,88.93,326.34,42.26,5.52,0.1872,2457753.78,2016-12-31.2,1.92e+03,5.26,0.0604,23.5,0.105,2.58,7.2e-08,7.1e-07,2.4e-07,4.5e-06,1.1e-04,1.2e-04,1.6e-05,1.3e-06,6.6e-08,8.8e-06,6.8e-04,JFc,"Davide Farnocchia",2067,2016-11-05,2022-07-04,1823,8,4,1,.64613,,5.4e-09,7.6e-10,1.8e-10,1.2e-10,,,-25.8,4.86
1000109,"   46P/Wirtanen",46P,Wirtanen,P,Y,,0,,,16.5,,4.5,,,1.2,,,,,,,,,,,,"JPL K181/22",2458465.5,58465,2018-12-13.0,J2000,0.6588,3.093,1.055,11.75,82.16,356.34,0.01,5.13,0.1812,2458465.43,2018-12-12.9,1.99e+03,5.44,0.0713,27.8,0.169,2.82,2.2e-07,2.0e-06,5.3e-09,3.1e-06,3.4e-06,6.8e-06,7.8e-07,3.3e-06,1.7e-07,4.3e-06,1.9e-03,JFc,"Davide Farnocchia",419,2018-05-08,2019-07-01,4177,4,1,2,.46566,,4.0e-09,4.8e-11,-1.3e-09,4.9e-11,8.1e-10,3.2e-11,,
1000003,"   47P/Ashbrook-Jackson",47P,Ashbrook-Jackson,P,,,0,,,11.3,,8.,,,5.6,,,15.6,,,,,,,,,"JPL K257/2",2455635.5,55635,2011-03-15.0,J2000,0.3189,4.113,2.802,13.05,356.98,357.84,91.16,5.43,0.1181,2454863.89,2009-02-01.3,3.05e+03,8.34,1.8,700,0.025,2.91,6.3e-08,4.1e-08,2.4e-07,6.8e-06,2.2e-05,2.0e-05,4.9e-06,5.4e-08,1.8e-09,4.8e-05,4.5e-05,JFc,"Davide Farnocchia",16433,1977-04-28,2022-04-25,2728,,,0,.79474,,,,,,,,,
1000049,"   48P/Johnson",48P,Johnson,P,,,0,,,9.3,13.5,15.75,5.,0.03,5.74,,,,,,,,,,,,"JPL 68",2455228.5,55228,2010-02-01.0,J2000,0.3678,3.642,2.302,13.66,117.29,207.83,274.21,4.98,0.1418,2455833.47,2011-09-28.9,2.54e+03,6.95,1.3,506,0.475,2.94,9.3e-08,3.5e-08,3.3e-07,9.4e-06,2.0e-05,2.7e-05,9.9e-06,4.8e-08,2.1e-09,7.1e-05,3.7e-05,JFc,"Davide Farnocchia",26012,1949-09-24,2020-12-12,2140,,,0,.74371,,5.7e-09,8.6e-11,-1.7e-10,2.6e-12,,,,
1000002,"   49P/Arend-Rigaux",49P,Arend-Rigaux,P,,,0,,,14.2,,5.75,,,8.48,,0.028,13.45,,,,,,,,,"JPL K183/17",2455800.5,55800,2011-08-27.0,J2000,0.6004,3.563,1.424,19.05,118.88,332.79,352.22,5.70,0.1465,2455853.58,2011-10-19.0,2.46e+03,6.73,0.462,180,0.158,2.71,5.1e-08,5.9e-08,1.8e-07,5.4e-06,1.9e-05,2.4e-05,5.1e-06,9.5e-08,3.6e-09,3.6e-05,6.1e-05,JFc,"Davide Farnocchia",5870,2004-06-24,2020-07-20,3325,,,0,.54262,,-1.7e-10,1.5e-11,6.3e-11,6.2e-12,3.4e-10,2.1e-11,155,9.09
1000001,"   50P/Arend",50P,Arend,P,,,0,,,14.1,,8.,,,1.9,,,,,,,,,,,,"JPL K163/2",2455190.5,55190,2009-12-25.0,J2000,0.5298,4.088,1.922,19.16,355.32,49.01,93.55,6.25,0.1192,2454405.96,2007-11-01.4,3.02e+03,8.27,0.981,382,0.603,2.69,1.5e-07,8.8e-08,6.6e-07,9.0e-06,2.3e-05,5.9e-05,1.6e-05,1.3e-07,3.9e-09,1.2e-04,9.8e-05,JFc,"Davide Farnocchia",6447,1999-08-03,2017-03-28,1693,,,0,.68498,,2.4e-09,2.9e-10,-1.1e-10,2.9e-12,,,,
1000038,"   51P/Harrington",51P,Harrington,P,,,0,,,18.6,,4.5,,,4.8,,,,,,,,,,,,"JPL K222/3",2457925.5,57925,2017-06-21.0,J2000,0.5420,3.71,1.699,5.42,83.72,269.16,93.59,5.72,0.1379,2457246.91,2015-08-12.4,2.61e+03,7.15,0.703,274,0.371,2.81,4.3e-06,2.0e-06,1.7e-05,1.3e-04,2.2e-03,3.9e-03,5.8e-04,3.0e-06,1.1e-07,3.9e-03,2.1e-03,JFc,"Davide Farnocchia",2701,2015-05-25,2022-10-16,99,,,2,.85207,,3.0e-07,1.0e-08,-8.7e-08,3.7e-09,-2.1e-08,2.1e-09,,
1000363,"   51P/Harrington-A",51P-A,Harrington,P,,,0,,,10.6,15.1,15.,5.,0.03,4.8,,,,,,,,,,,,"JPL 8",2451677.5,51677,2000-05-13.0,J2000,0.5621,3.581,1.568,8.65,119.19,233.59,303.46,5.59,0.1455,2452066.19,2001-06-05.6,2.47e+03,6.78,0.582,226,0.393,2.81,2.5e-06,1.7e-06,8.5e-06,4.4e-05,2.2e-04,1.0e-03,1.8e-04,2.6e-06,1.0e-07,1.4e-03,1.7e-03,JFc,"Davide Farnocchia",7593,1994-09-10,2015-06-25,246,,,2,.85978,,2.6e-08,2.0e-09,3.1e-09,1.0e-10,,,,
1000039,"   52P/Harrington-Abell",52P,Harrington-Abell,P,,,0,,,11.7,15.5,16.25,5.,0.03,2.6,,,,,,,,,,,,"JPL K212/18",2457561.5,57561,2016-06-22.0,J2000,0.5401,3.859,1.775,10.23,336.84,139.66,108.90,5.94,0.13,2456723.87,2014-03-07.3,2.77e+03,7.58,0.806,314,0.0354,2.77,3.4e-07,9.0e-08,1.3e-06,9.9e-06,6.4e-05,9.1e-05,1.8e-05,1.4e-07,4.5e-09,1.3e-04,9.7e-05,JFc,"Davide Farnocchia",3159,2013-10-01,2022-05-26,1156,,,0,.55548,,-4.8e-09,3.7e-10,-1.6e-10,3.8e-10,,,,
1000102,"   53P/Van Biesbroeck",53P,"Van Biesbroeck",P,,,0,,,9.9,12.5,10.,5.,0.03,6.66,,,,,,,,,,,,"JPL K162/8",2455782.5,55782,2011-08-09.0,J2000,0.5511,5.405,2.426,6.61,148.90,134.27,224.54,8.38,0.07845,2457509.30,2016-04-30.7,4.59e+03,12.6,1.42,551,0.00943,2.65,7.4e-08,1.1e-07,4.3e-07,6.7e-06,9.1e-05,9.4e-05,1.6e-05,1.8e-07,2.5e-09,2.6e-04,1.4e-04,JFc,"Davide Farnocchia",6192,2001-02-20,2018-02-03,2911,,,0,.61036,,-1.2e-08,1.2e-09,4.6e-09,4.6e-10,2.2e-09,4.4e-10,-179,11.8
1000095,"   55P/Tempel-Tuttle",55P,Tempel-Tuttle,P,Y,,0,,,10.0,16.0,25.0,10.0,,3.6,,0.06,,,,,,,,,,"JPL J985/69",2451040.5,51040,1998-08-15.0,J2000,0.9056,10.34,0.976,162.49,235.27,172.50,4.98,19.70,0.02965,2450872.60,1998-02-28.0,1.21e+04,33.2,0.00848,3.3,,-0.637,6.8e-08,5.2e-07,7.3e-07,1.9e-05,1.0e-04,1.5e-04,1.4e-06,9.9e-07,2.2e-09,3.9e-05,9.1e-04,HTC,"M.S.W. Keesey",48407,1865-12-22,1998-07-05,392,,,,.72806,,1.6e-09,3.5e-10,9.2e-11,2.0e-13,,,,
1000087,"   56P/Slaughter-Burnham",56P,Slaughter-Burnham,P,,,0,,,9.4,13.4,14.5,5.,0.03,3.12,,,,,,,,,,,,"JPL K162/3",2456513.5,56513,2013-08-09.0,J2000,0.5073,5.086,2.506,8.15,346.04,44.22,267.70,7.67,0.08593,2457587.58,2016-07-18.0,4.19e+03,11.5,1.52,591,0.0223,2.71,1.6e-07,1.1e-07,7.9e-07,6.5e-06,6.7e-05,9.2e-05,1.8e-05,1.6e-07,2.7e-09,2.1e-04,1.3e-04,JFc,"Davide Farnocchia",4940,2004-07-15,2018-01-23,1983,,,0,.60139,,-3.8e-08,2.1e-09,2.0e-08,1.7e-09,,,,
1000050,"   59P/Kearns-Kwee",59P,Kearns-Kwee,P,,,0,,,10.4,14.7,15.25,5.,0.03,1.58,,,,,,,,,,,,"JPL K182/6",2456600.5,56600,2013-11-04.0,J2000,0.4764,4.491,2.352,9.34,312.86,127.75,176.09,6.63,0.1036,2454900.12,2009-03-09.6,3.48e+03,9.52,1.38,537,0.00636,2.77,2.3e-07,1.4e-07,9.8e-07,8.7e-06,5.8e-05,1.2e-04,3.3e-05,2.1e-07,4.9e-09,3.0e-04,1.6e-04,JFc,"Davide Farnocchia",3925,2008-07-09,2019-04-08,1270,,,0,.68005,,,,,,,,,
